[
    {
        "Altitude(m)": 570115.1802373094,
        "Argument of Periapsis(deg)": 0.006622991110713501,
        "Eccentricity": 0.0,
        "Inclination(deg)": 53.0,
        "Latitude(deg)": -48.76480003187054,
        "Longitude(deg)": -169.53448928460986,
        "Mean Anomaly(deg)": -69.90840713242238,
        "RAAN(deg)": 349.99014336852804,
        "Satellite Name": "Starlink Shell 1 1557",
        "Satellite Number": 1557,
        "Semi-Major Axis(m)": 6931778.249405717,
        "Time(s)": 190
    },
    {
        "Altitude(m)": 570009.6172085382,
        "Argument of Periapsis(deg)": 0.0069715695902247375,
        "Eccentricity": 0.0,
        "Inclination(deg)": 53.0,
        "Latitude(deg)": -48.50256089776601,
        "Longitude(deg)": -168.71961615398885,
        "Mean Anomaly(deg)": -69.28157592886573,
        "RAAN(deg)": 349.9896245984506,
        "Satellite Name": "Starlink Shell 1 1557",
        "Satellite Number": 1557,
        "Semi-Major Axis(m)": 6931778.249405717,
        "Time(s)": 200
    },
    {
        "Altitude(m)": 569901.3026834788,
        "Argument of Periapsis(deg)": 0.007320148069735974,
        "Eccentricity": 0.0,
        "Inclination(deg)": 53.0,
        "Latitude(deg)": -48.234006052160424,
        "Longitude(deg)": -167.91361673037204,
        "Mean Anomaly(deg)": -68.65474472530904,
        "RAAN(deg)": 349.98910582837306,
        "Satellite Name": "Starlink Shell 1 1557",
        "Satellite Number": 1557,
        "Semi-Major Axis(m)": 6931778.249405717,
        "Time(s)": 210
    },
    {
        "Altitude(m)": 569790.2795891913,
        "Argument of Periapsis(deg)": 0.007668726549247212,
        "Eccentricity": 0.0,
        "Inclination(deg)": 53.0,
        "Latitude(deg)": -47.95925843717984,
        "Longitude(deg)": -167.1165205715766,
        "Mean Anomaly(deg)": -68.0279135217523,
        "RAAN(deg)": 349.9885870582956,
        "Satellite Name": "Starlink Shell 1 1557",
        "Satellite Number": 1557,
        "Semi-Major Axis(m)": 6931778.249405717,
        "Time(s)": 220
    },
    {
        "Altitude(m)": 569676.5919068814,
        "Argument of Periapsis(deg)": 0.00801730502875845,
        "Eccentricity": 0.0,
        "Inclination(deg)": 53.0,
        "Latitude(deg)": -47.6784406445053,
        "Longitude(deg)": -166.3283455467401,
        "Mean Anomaly(deg)": -67.40108231819555,
        "RAAN(deg)": 349.98806828821813,
        "Satellite Name": "Starlink Shell 1 1557",
        "Satellite Number": 1557,
        "Semi-Major Axis(m)": 6931778.249405717,
        "Time(s)": 230
    },
    {
        "Altitude(m)": 569560.2846526896,
        "Argument of Periapsis(deg)": 0.008365883508269684,
        "Eccentricity": 0.0,
        "Inclination(deg)": 53.0,
        "Latitude(deg)": -47.391674752925276,
        "Longitude(deg)": -165.54909787239575,
        "Mean Anomaly(deg)": -66.7742511146389,
        "RAAN(deg)": 349.98754951814067,
        "Satellite Name": "Starlink Shell 1 1557",
        "Satellite Number": 1557,
        "Semi-Major Axis(m)": 6931778.249405717,
        "Time(s)": 240
    },
    {
        "Altitude(m)": 569441.4038580266,
        "Argument of Periapsis(deg)": 0.008714461987780921,
        "Eccentricity": 0.0,
        "Inclination(deg)": 53.0,
        "Latitude(deg)": -47.099082176844895,
        "Longitude(deg)": -164.77877366729646,
        "Mean Anomaly(deg)": -66.14741991108211,
        "RAAN(deg)": 349.98703074806315,
        "Satellite Name": "Starlink Shell 1 1557",
        "Satellite Number": 1557,
        "Semi-Major Axis(m)": 6931778.249405717,
        "Time(s)": 250
    },
    {
        "Altitude(m)": 569319.996549432,
        "Argument of Periapsis(deg)": 0.009063040467292158,
        "Eccentricity": 0.0,
        "Inclination(deg)": 53.0,
        "Latitude(deg)": -46.800783525643645,
        "Longitude(deg)": -164.01735899682697,
        "Mean Anomaly(deg)": -65.52058870752536,
        "RAAN(deg)": 349.98651197798574,
        "Satellite Name": "Starlink Shell 1 1557",
        "Satellite Number": 1557,
        "Semi-Major Axis(m)": 6931778.249405717,
        "Time(s)": 260
    },
    {
        "Altitude(m)": 569196.1107280367,
        "Argument of Periapsis(deg)": 0.009411618946803396,
        "Eccentricity": 0.0,
        "Inclination(deg)": 53.0,
        "Latitude(deg)": -46.496898473705855,
        "Longitude(deg)": -163.26482991675155,
        "Mean Anomaly(deg)": -64.89375750396871,
        "RAAN(deg)": 349.9859932079083,
        "Satellite Name": "Starlink Shell 1 1557",
        "Satellite Number": 1557,
        "Semi-Major Axis(m)": 6931778.249405717,
        "Time(s)": 270
    },
    {
        "Altitude(m)": 569069.7953485178,
        "Argument of Periapsis(deg)": 0.009760197426314633,
        "Eccentricity": 0.0,
        "Inclination(deg)": 53.0,
        "Latitude(deg)": -46.18754564089885,
        "Longitude(deg)": -162.5211540263324,
        "Mean Anomaly(deg)": -64.26692630041202,
        "RAAN(deg)": 349.98547443783076,
        "Satellite Name": "Starlink Shell 1 1557",
        "Satellite Number": 1557,
        "Semi-Major Axis(m)": 6931778.249405717,
        "Time(s)": 280
    },
    {
        "Altitude(m)": 568941.1002976618,
        "Argument of Periapsis(deg)": 0.01010877590582587,
        "Eccentricity": 0.0,
        "Inclination(deg)": 53.0,
        "Latitude(deg)": -45.872842483236575,
        "Longitude(deg)": -161.78629050252192,
        "Mean Anomaly(deg)": -63.64009509685522,
        "RAAN(deg)": 349.9849556677533,
        "Satellite Name": "Starlink Shell 1 1557",
        "Satellite Number": 1557,
        "Semi-Major Axis(m)": 6931778.249405717,
        "Time(s)": 290
    },
    {
        "Altitude(m)": 568810.0763725319,
        "Argument of Periapsis(deg)": 0.010457354385337106,
        "Eccentricity": 0.0,
        "Inclination(deg)": 53.0,
        "Latitude(deg)": -45.552905193421275,
        "Longitude(deg)": -161.06019012583172,
        "Mean Anomaly(deg)": -63.01326389329852,
        "RAAN(deg)": 349.98443689767583,
        "Satellite Name": "Starlink Shell 1 1557",
        "Satellite Number": 1557,
        "Semi-Major Axis(m)": 6931778.249405717,
        "Time(s)": 300
    },
    {
        "Altitude(m)": 568676.775258146,
        "Argument of Periapsis(deg)": 0.010805932864848343,
        "Eccentricity": 0.0,
        "Inclination(deg)": 53.0,
        "Latitude(deg)": -45.22784861092309,
        "Longitude(deg)": -160.34279680874886,
        "Mean Anomaly(deg)": -62.38643268974184,
        "RAAN(deg)": 349.9839181275984,
        "Satellite Name": "Starlink Shell 1 1557",
        "Satellite Number": 1557,
        "Semi-Major Axis(m)": 6931778.249405717,
        "Time(s)": 310
    },
    {
        "Altitude(m)": 568541.2495048454,
        "Argument of Periapsis(deg)": 0.01115451134435958,
        "Eccentricity": 0.0,
        "Inclination(deg)": 53.0,
        "Latitude(deg)": -44.897786141242186,
        "Longitude(deg)": -159.63404759922128,
        "Mean Anomaly(deg)": -61.75960148618514,
        "RAAN(deg)": 349.9833993575209,
        "Satellite Name": "Starlink Shell 1 1557",
        "Satellite Number": 1557,
        "Semi-Major Axis(m)": 6931778.249405717,
        "Time(s)": 320
    },
    {
        "Altitude(m)": 568403.5525051901,
        "Argument of Periapsis(deg)": 0.011503089823870818,
        "Eccentricity": 0.0,
        "Inclination(deg)": 53.0,
        "Latitude(deg)": -44.562829683967884,
        "Longitude(deg)": -158.93387267059265,
        "Mean Anomaly(deg)": -61.13277028262834,
        "RAAN(deg)": 349.9828805874434,
        "Satellite Name": "Starlink Shell 1 1557",
        "Satellite Number": 1557,
        "Semi-Major Axis(m)": 6931778.249405717,
        "Time(s)": 330
    },
    {
        "Altitude(m)": 568263.7384705117,
        "Argument of Periapsis(deg)": 0.011851668303382053,
        "Eccentricity": 0.0,
        "Inclination(deg)": 53.0,
        "Latitude(deg)": -44.22308956923482,
        "Longitude(deg)": -158.242196809607,
        "Mean Anomaly(deg)": -60.505939079071695,
        "RAAN(deg)": 349.9823618173659,
        "Satellite Name": "Starlink Shell 1 1557",
        "Satellite Number": 1557,
        "Semi-Major Axis(m)": 6931778.249405717,
        "Time(s)": 340
    },
    {
        "Altitude(m)": 568121.8624070802,
        "Argument of Periapsis(deg)": 0.012200246782893292,
        "Eccentricity": 0.0,
        "Inclination(deg)": 53.0,
        "Latitude(deg)": -43.87867450217373,
        "Longitude(deg)": -157.55893937570414,
        "Mean Anomaly(deg)": -59.879107875515054,
        "RAAN(deg)": 349.98184304728846,
        "Satellite Name": "Starlink Shell 1 1557",
        "Satellite Number": 1557,
        "Semi-Major Axis(m)": 6931778.249405717,
        "Time(s)": 350
    },
    {
        "Altitude(m)": 567977.9800919092,
        "Argument of Periapsis(deg)": 0.012548825262404526,
        "Eccentricity": 0.0,
        "Inclination(deg)": 53.0,
        "Latitude(deg)": -43.52969151493995,
        "Longitude(deg)": -156.8840142436496,
        "Mean Anomaly(deg)": -59.252276671958256,
        "RAAN(deg)": 349.981324277211,
        "Satellite Name": "Starlink Shell 1 1557",
        "Satellite Number": 1557,
        "Semi-Major Axis(m)": 6931778.249405717,
        "Time(s)": 360
    },
    {
        "Altitude(m)": 567832.1480482096,
        "Argument of Periapsis(deg)": 0.012897403741915765,
        "Eccentricity": 0.0,
        "Inclination(deg)": 53.0,
        "Latitude(deg)": -43.17624592590117,
        "Longitude(deg)": -156.21733124173517,
        "Mean Anomaly(deg)": -58.62544546840151,
        "RAAN(deg)": 349.9808055071335,
        "Satellite Name": "Starlink Shell 1 1557",
        "Satellite Number": 1557,
        "Semi-Major Axis(m)": 6931778.249405717,
        "Time(s)": 370
    }
]